NORAD_CAT_ID,OBJECT_NAME,OBJECT_TYPE,EPOCH,MEAN_MOTION,ECCENTRICITY,INCLINATION,RA_OF_ASC_NODE,ARG_OF_PERICENTER,MEAN_ANOMALY,BSTAR,MEAN_MOTION_DOT,MEAN_MOTION_DDOT,TLE_LINE0,TLE_LINE1,TLE_LINE2,SEMIMAJOR_AXIS,PERIOD,APOGEE,PERIGEE,DECAYED
49408.0,STARLINK-3151,PAYLOAD,2023-11-02 18:29:32,15.08842223,0.0001347,53.2166,120.4818,89.3392,270.7754,5.1428e-05,5.31e-06,0.0,0 STARLINK-3151,1 49408U 21104A   23306.77051954  .00000531  00000-0  51428-4 0  9998,2 49408  53.2166 120.4818 0001347  89.3392 270.7754 15.08842223109112,6917.874,95.437,540.67,538.807,0.0
49408.0,STARLINK-3151,PAYLOAD,2023-11-03 13:34:09,15.08862803,0.0001871,53.2169,116.9131,107.0302,253.0895,0.00032047,4.819e-05,0.0,0 STARLINK-3151,1 49408U 21104A   23307.56538677  .00004819  00000-0  32047-3 0  9996,2 49408  53.2169 116.9131 0001871 107.0302 253.0895 15.08862803109233,6917.811,95.436,540.97,538.381,0.0
49408.0,STARLINK-3151,PAYLOAD,2023-11-03 19:55:41,15.08870167,0.0001388,53.2163,115.7249,87.6938,272.4213,0.00039825,6.061e-05,0.0,0 STARLINK-3151,1 49408U 21104A   23307.83034024  .00006061  00000-0  39825-3 0  9995,2 49408  53.2163 115.7249 0001388  87.6938 272.4213 15.08870167110373,6917.788,95.436,540.613,538.693,0.0
49408.0,STARLINK-3151,PAYLOAD,2023-11-03 21:31:04,15.08871323,0.0001388,53.2163,115.4274,86.7375,273.3776,0.00040964,6.243e-05,0.0,0 STARLINK-3151,1 49408U 21104A   23307.89657887  .00006243  00000-0  40964-3 0  9997,2 49408  53.2163 115.4274 0001388  86.7375 273.3776 15.08871323109280,6917.785,95.436,540.61,538.689,0.0
49408.0,STARLINK-3151,PAYLOAD,2023-11-04 03:52:38,15.08823454,0.0001343,53.2164,114.2376,91.3902,268.7244,-0.00024424,-4.171e-05,0.0,0 STARLINK-3151,1 49408U 21104A   23308.16156132 -.00004171  00000-0 -24424-3 0  9998,2 49408  53.2164 114.2376 0001343  91.3902 268.7244 15.08823454110428,6917.931,95.439,540.725,538.867,0.0
49408.0,STARLINK-3151,PAYLOAD,2023-11-04 11:49:34,15.08826976,0.0001158,53.2161,112.7507,94.2546,265.8578,-0.00014703,-2.626e-05,0.0,0 STARLINK-3151,1 49408U 21104A   23308.49276120 -.00002626  00000-0 -14703-3 0  9996,2 49408  53.2161 112.7507 0001158  94.2546 265.8578 15.08826976109376,6917.92,95.438,540.586,538.984,0.0
49408.0,STARLINK-3151,PAYLOAD,2023-11-04 18:11:06,15.08832114,0.0001155,53.2162,111.5614,88.7778,271.3347,-0.00016248,-2.872e-05,0.0,0 STARLINK-3151,1 49408U 21104A   23308.75771757 -.00002872  00000-0 -16248-3 0  9990,2 49408  53.2162 111.5614 0001155  88.7778 271.3347 15.08832114110510,6917.904,95.438,540.569,538.97,0.0
49408.0,STARLINK-3151,PAYLOAD,2023-11-05 11:40:21,15.08849827,0.0001145,53.2161,108.2908,96.3359,263.7763,0.00077334,0.00012044,0.0,0 STARLINK-3151,1 49408U 21104A   23309.48635694  .00012044  00000-0  77334-3 0  9993,2 49408  53.2161 108.2908 0001145  96.3359 263.7763 15.08849827110625,6917.85,95.437,540.507,538.923,0.0
49408.0,STARLINK-3151,PAYLOAD,2023-11-05 14:51:07,15.08848131,0.0001073,53.2162,107.6963,94.2249,265.8866,0.00098628,0.00015447,0.0,0 STARLINK-3151,1 49408U 21104A   23309.61883817  .00015447  00000-0  98628-3 0  9999,2 49408  53.2162 107.6963 0001073  94.2249 265.8866 15.08848131109548,6917.856,95.437,540.463,538.978,0.0
49408.0,STARLINK-3151,PAYLOAD,2023-11-05 18:01:53,15.08854069,0.0001056,53.216,107.1015,92.3131,267.7982,0.0010364,0.00016251,0.0,0 STARLINK-3151,1 49408U 21104A   23309.75131662  .00016251  00000-0  10364-2 0  9992,2 49408  53.2160 107.1015 0001056  92.3131 267.7982 15.08854069109568,6917.837,95.437,540.433,538.972,0.0
49408.0,STARLINK-3151,PAYLOAD,2023-11-06 14:41:53,15.08876159,0.0001484,53.2152,103.2353,56.4287,303.6846,0.0012044,0.00018951,0.0,0 STARLINK-3151,1 49408U 21104A   23310.61242822  .00018951  00000-0  12044-2 0  9996,2 49408  53.2152 103.2353 0001484  56.4287 303.6846 15.08876159109696,6917.77,95.435,540.661,538.608,0.0
49408.0,STARLINK-3151,PAYLOAD,2023-11-06 17:52:39,15.0886757,0.0001015,53.2152,102.6402,89.311,270.7998,0.00056578,8.735e-05,0.0,0 STARLINK-3151,1 49408U 21104A   23310.74490366  .00008735  00000-0  56578-3 0  9998,2 49408  53.2152 102.6402 0001015  89.3110 270.7998 15.08867570110819,6917.796,95.436,540.363,538.959,0.0
49408.0,STARLINK-3151,PAYLOAD,2023-11-07 03:24:58,15.08837558,0.0001143,53.2148,100.8562,84.3787,275.7335,-0.00032493,-5.455e-05,0.0,0 STARLINK-3151,1 49408U 21104A   23311.14234907 -.00005455  00000-0 -32493-3 0  9998,2 49408  53.2148 100.8562 0001143  84.3787 275.7335 15.08837558110877,6917.888,95.438,540.544,538.962,0.0
49408.0,STARLINK-3151,PAYLOAD,2023-11-07 09:46:32,15.08813635,0.0001598,53.2146,99.6668,87.1457,272.9718,-0.00073717,-0.00011992,0.0,0 STARLINK-3151,1 49408U 21104A   23311.40732037 -.00011992  00000-0 -73717-3 0  9991,2 49408  53.2146  99.6668 0001598  87.1457 272.9718 15.08813635110915,6917.961,95.439,540.931,538.72,0.0
49408.0,STARLINK-3151,PAYLOAD,2023-11-07 14:32:42,15.08808392,0.0001539,53.2146,98.7749,86.7046,273.4122,-0.00065191,-0.00010639,0.0,0 STARLINK-3151,1 49408U 21104A   23311.60604511 -.00010639  00000-0 -65191-3 0  9992,2 49408  53.2146  98.7749 0001539  86.7046 273.4122 15.08808392109848,6917.977,95.44,540.907,538.777,0.0
49408.0,STARLINK-3151,PAYLOAD,2023-11-08 09:37:21,15.08815292,0.0001339,53.2172,95.207,80.486,279.6283,0.00076586,0.00011913,0.0,0 STARLINK-3151,1 49408U 21104A   23312.40094322  .00011913  00000-0  76586-3 0  9998,2 49408  53.2172  95.2070 0001339  80.4860 279.6283 15.08815292111069,6917.956,95.439,540.747,538.895,0.0
49408.0,STARLINK-3151,PAYLOAD,2023-11-08 14:23:30,15.08831474,0.0001527,53.2162,94.3157,81.5855,278.531,0.0011755,0.00018465,0.0,0 STARLINK-3151,1 49408U 21104A   23312.59966379  .00018465  00000-0  11755-2 0  9993,2 49408  53.2162  94.3157 0001527  81.5855 278.5310 15.08831474109997,6917.906,95.438,540.828,538.715,0.0
49408.0,STARLINK-3151,PAYLOAD,2023-11-08 15:58:54,15.08836298,0.0001405,53.2164,94.0185,79.6351,280.48,0.0012877,0.00020263,0.0,0 STARLINK-3151,1 49408U 21104A   23312.66590360  .00020263  00000-0  12877-2 0  9999,2 49408  53.2164  94.0185 0001405  79.6351 280.4800 15.08836298111102,6917.892,95.438,540.729,538.785,0.0
49408.0,STARLINK-3151,PAYLOAD,2023-11-09 14:14:17,15.08871615,0.0001571,53.217,89.8556,75.8107,284.3059,0.0011181,0.00017567,0.0,0 STARLINK-3151,1 49408U 21104A   23313.59325364  .00017567  00000-0  11181-2 0  9992,2 49408  53.2170  89.8556 0001571  75.8107 284.3059 15.08871615110148,6917.784,95.436,540.736,538.562,0.0
49408.0,STARLINK-3151,PAYLOAD,2023-11-10 12:29:40,15.08856104,0.0001744,53.2178,85.6879,109.7146,250.4034,0.00026574,3.946e-05,0.0,0 STARLINK-3151,1 49408U 21104A   23314.52060691  .00003946  00000-0  26574-3 0  9994,2 49408  53.2178  85.6879 0001744 109.7146 250.4034 15.08856104111380,6917.831,95.437,540.903,538.49,0.0
49408.0,STARLINK-3151,PAYLOAD,2023-11-10 14:05:03,15.08852805,0.0001935,53.2171,85.392,116.7475,243.3715,0.00013431,1.851e-05,0.0,0 STARLINK-3151,1 49408U 21104A   23314.58684641  .00001851  00000-0  13431-3 0  9998,2 49408  53.2171  85.3920 0001935 116.7475 243.3715 15.08852805110292,6917.841,95.437,541.045,538.368,0.0
49408.0,STARLINK-3151,PAYLOAD,2023-11-10 15:40:26,15.08854132,0.000137,53.2175,85.0953,85.7637,274.3512,0.00019246,2.778e-05,0.0,0 STARLINK-3151,1 49408U 21104A   23314.65308750  .00002778  00000-0  19246-3 0  9999,2 49408  53.2175  85.0953 0001370  85.7637 274.3512 15.08854132110303,6917.837,95.437,540.65,538.754,0.0
49408.0,STARLINK-3151,PAYLOAD,2023-11-11 12:20:28,15.08837428,0.0001038,53.2163,81.2309,76.2761,283.8347,-2.2623e-05,-6.48e-06,0.0,0 STARLINK-3151,1 49408U 21104A   23315.51421417 -.00000648  00000-0 -22623-4 0  9991,2 49408  53.2163  81.2309 0001038  76.2761 283.8347 15.08837428111533,6917.888,95.438,540.471,539.035,0.0
49408.0,STARLINK-3151,PAYLOAD,2023-11-11 13:55:51,15.08835805,0.0001046,53.2162,80.9335,76.9116,283.1992,-4.9117e-05,-1.069e-05,0.0,0 STARLINK-3151,1 49408U 21104A   23315.58045488 -.00001069  00000-0 -49117-4 0  9993,2 49408  53.2162  80.9335 0001046  76.9116 283.1992 15.08835805110442,6917.893,95.438,540.482,539.035,0.0
49408.0,STARLINK-3151,PAYLOAD,2023-11-11 18:42:00,15.08829502,0.0001637,53.2187,80.043,100.2143,259.9034,-0.00017776,-3.115e-05,0.0,0 STARLINK-3151,1 49408U 21104A   23315.77917710 -.00003115  00000-0 -17776-3 0  9999,2 49408  53.2187  80.0430 0001637 100.2143 259.9034 15.08829502110471,6917.912,95.438,540.91,538.645,0.0
49408.0,STARLINK-3151,PAYLOAD,2023-11-12 13:46:38,15.08840986,0.0001274,53.2168,76.4729,94.5755,265.5383,0.00025471,3.768e-05,0.0,0 STARLINK-3151,1 49408U 21104A   23316.57405935  .00003768  00000-0  25471-3 0  9992,2 49408  53.2168  76.4729 0001274  94.5755 265.5383 15.08840986110593,6917.877,95.437,540.624,538.861,0.0
49408.0,STARLINK-3151,PAYLOAD,2023-11-12 15:22:01,15.08846001,0.0001264,53.2167,76.1758,94.8094,265.3043,0.00036624,5.547e-05,0.0,0 STARLINK-3151,1 49408U 21104A   23316.64029799  .00005547  00000-0  36624-3 0  9999,2 49408  53.2167  76.1758 0001264  94.8094 265.3043 15.08846001111708,6917.862,95.437,540.601,538.853,0.0
49408.0,STARLINK-3151,PAYLOAD,2023-11-13 12:02:01,15.08863274,0.000136,53.2168,72.3102,92.1858,267.929,0.00055371,8.541e-05,0.0,0 STARLINK-3151,1 49408U 21104A   23317.50141117  .00008541  00000-0  55371-3 0  9991,2 49408  53.2168  72.3102 0001360  92.1858 267.9290 15.08863274110731,6917.809,95.436,540.615,538.733,0.0
49408.0,STARLINK-3151,PAYLOAD,2023-11-14 00:45:06,15.08858374,0.0001233,53.2167,69.9315,97.6345,262.4788,0.00023424,3.444e-05,0.0,0 STARLINK-3151,1 49408U 21104A   23318.03132705  .00003444  00000-0  23424-3 0  9994,2 49408  53.2167  69.9315 0001233  97.6345 262.4788 15.08858374111916,6917.824,95.436,540.542,538.836,0.0
49408.0,STARLINK-3151,PAYLOAD,2023-11-14 11:52:48,15.08836768,0.00013,53.2166,67.8504,100.0241,260.0898,-0.0002739,-4.644e-05,0.0,0 STARLINK-3151,1 49408U 21104A   23318.49501101 -.00004644  00000-0 -27390-3 0  9995,2 49408  53.2166  67.8504 0001300 100.0241 260.0898 15.08836768111987,6917.89,95.438,540.655,538.856,0.0
